GLOBALSTAR M063 [+]     
1 26081U 00008A   24030.34132608 -.00000088  00000+0 -85097-4 0  9991
2 26081  51.9985 358.4977 0004853  67.5105  80.1067 11.86150167 97782
GLOBALSTAR M062 [-]     
1 26082U 00008B   24030.61189109 -.00000006  00000+0  65955-3 0  9999
2 26082  51.9844 136.5963 0008080 117.7287 346.1599 12.43427387433977
GLOBALSTAR M060 [-]     
1 26083U 00008C   24030.21337913  .00000072  00000+0  16201-2 0  9995
2 26083  52.0040  26.4788 0003295 178.9391 263.2185 12.17625412 90977
GLOBALSTAR M065 [+]     
1 31571U 07020A   24030.98100927 -.00000106  00000+0 -14733-4 0  9991
2 31571  51.9919 317.8046 0009624 274.2322 165.6030 12.61961823769872
GLOBALSTAR M069 [+]     
1 31573U 07020C   24030.84991358 -.00000066  00000+0  21045-3 0  9991
2 31573  51.9948 274.2098 0001581  62.6807  16.9366 12.62265515770980
GLOBALSTAR M072 [+]     
1 31574U 07020D   24030.92635354 -.00000076  00000+0  15356-3 0  9991
2 31574  52.0106   9.7887 0000736 349.7756  96.5036 12.62282105769260
GLOBALSTAR M071 [P]     
1 31576U 07020F   24030.88770953 -.00000057  00000+0  25922-3 0  9992
2 31576  52.0068 279.1522 0001891  69.9700  61.0284 12.62266608432170
